[{"OBJECT_NAME":"STARLINK-35938","OBJECT_ID":"2025-271AD","EPOCH":"2026-03-09T10:30:08.422272","MEAN_MOTION":15.30196229,"ECCENTRICITY":0.00015581,"INCLINATION":53.159,"RA_OF_ASC_NODE":141.4179,"ARG_OF_PERICENTER":131.009,"MEAN_ANOMALY":229.1046,"EPHEMERIS_TYPE":0,"CLASSIFICATION_TYPE":"U","NORAD_CAT_ID":66644,"ELEMENT_SET_NO":999,"REV_AT_EPOCH":1752,"BSTAR":0.00043422689,"MEAN_MOTION_DOT":0.00012522,"MEAN_MOTION_DDOT":0},{"OBJECT_NAME":"TRANSPORTER-1 OBJECT AA","OBJECT_ID":"2021-006AA","EPOCH":"2026-03-09T22:58:14.761920","MEAN_MOTION":15.29982294,"ECCENTRICITY":0.00086604,"INCLINATION":97.2381,"RA_OF_ASC_NODE":112.457,"ARG_OF_PERICENTER":185.709,"MEAN_ANOMALY":174.4054,"EPHEMERIS_TYPE":0,"CLASSIFICATION_TYPE":"U","NORAD_CAT_ID":47437,"ELEMENT_SET_NO":999,"REV_AT_EPOCH":28414,"BSTAR":0.0002197941,"MEAN_MOTION_DOT":6.312e-5,"MEAN_MOTION_DDOT":0}]
